{"fetched_at":"2026-06-04T18:13:41Z","count":1054,"tles":[{"name":"ISS (ZARYA)","line1":"1 25544U 98067A   26154.96745432  .00008451  00000+0  15807-3 0  9999","line2":"2 25544  51.6330   5.5404 0007082 130.0270 230.1341 15.49590346569705","category":"ISS"},{"name":"TERRA","line1":"1 25994U 99068A   26155.14712492  .00000498  00000+0  11028-3 0  9995","line2":"2 25994  97.9462 205.2097 0000811 264.5270 179.3894 14.61092589407703","category":"Other"},{"name":"AQUA","line1":"1 27424U 02022A   26155.19423537  .00000999  00000+0  20852-3 0  9994","line2":"2 27424  98.4271 124.2182 0001610  56.6402  33.2429 14.62137705281373","category":"Other"},{"name":"ENVISAT","line1":"1 27386U 02009A   26154.49205816  .00000112  00000+0  49998-4 0  9996","line2":"2 27386  98.3829 106.1165 0001331  92.0435  19.9609 14.39061394271518","category":"Other"},{"name":"SL-16 R/B","line1":"1 25400U 98043G   26154.47074504  .00000058  00000+0  43381-4 0  9999","line2":"2 25400  98.8359 108.5125 0010765 122.3726 237.8497 14.26066141451213","category":"Other"},{"name":"TITAN 4B R/B","line1":"1 26474U 00047B   26155.14505844  .00003600  00000+0  22338-3 0  9993","line2":"2 26474  67.9869 157.2818 0045370 300.2597  59.4065 15.10118403405964","category":"Other"},{"name":"CZ-2C R/B","line1":"1 28222U 04012C   26154.20614582  .00096678  00000+0  61038-3 0  9995","line2":"2 28222  97.7100 228.2705 0008228 345.2948  14.8076 15.76297464217695","category":"Other"},{"name":"ORBVIEW 2 (SEASTAR)","line1":"1 24883U 97037A   26154.98619009  .00000272  00000+0  11083-3 0  9997","line2":"2 24883  98.8679 321.6404 0002742 143.7944 216.3427 14.35546238520857","category":"Other"},{"name":"IDEFIX & ARIANE 42P R/B","line1":"1 27422U 02021B   26154.42578324  .00000267  00000+0  11809-3 0  9991","line2":"2 27422  98.5941  92.0582 0010752 298.8139  61.1964 14.31075278256284","category":"Other"},{"name":"SL-16 R/B","line1":"1 25407U 98045B   26155.02764519  .00000244  00000+0  14737-3 0  9991","line2":"2 25407  71.0121   0.0058 0009541 256.9408 103.0651 14.16203190439322","category":"Other"},{"name":"ARIANE 5 R/B","line1":"1 28499U 04049H   26155.06230735  .00001017  00000+0  11757-3 0  9996","line2":"2 28499  98.2713 326.8091 0085158  71.4879 289.5565 14.85429493158616","category":"Other"},{"name":"CZ-4B R/B","line1":"1 28415U 04035C   26155.05684586  .00009416  00000+0  31779-3 0  9992","line2":"2 28415  97.3368 188.2801 0031514  25.1070 335.1695 15.30421930193110","category":"Other"},{"name":"CZ-4B R/B","line1":"1 27432U 02024C   26155.08319082  .00000058  00000+0  52513-4 0  9998","line2":"2 27432  98.8704 207.9874 0050923 136.7538 279.9487 14.14562256241453","category":"Other"},{"name":"ALOS (DAICHI)","line1":"1 28931U 06002A   26154.47725399  .00001292  00000+0  22359-3 0  9992","line2":"2 28931  98.1317 110.0882 0001949  66.5331 293.6079 14.70020825 86088","category":"Other"},{"name":"SL-16 R/B","line1":"1 28353U 04021B   26155.00887054 -.00000093  00000+0 -23717-4 0  9996","line2":"2 28353  71.0025  51.3458 0007451 269.5083  90.5186 14.14613232135043","category":"Other"},{"name":"H-2A R/B","line1":"1 28932U 06002B   26155.00275635  .00006247  00000+0  30250-3 0  9990","line2":"2 28932  98.2552 309.6413 0049669 308.2411  51.4355 15.17891973107525","category":"Other"},{"name":"CZ-2C R/B","line1":"1 31114U 07010B   26154.32245812  .00000119  00000+0  73246-4 0  9999","line2":"2 31114  98.4088 263.3526 0059778  46.1443 314.4652 14.20272773991878","category":"Other"},{"name":"OKEAN-O","line1":"1 25860U 99039A   26155.03276625  .00000684  00000+0  96255-4 0  9999","line2":"2 25860  97.9320 213.9810 0001896  82.8886 277.2542 14.80450346447167","category":"Other"},{"name":"MIDORI II (ADEOS-II)","line1":"1 27597U 02056A   26154.48772052  .00000317  00000+0  14226-3 0  9994","line2":"2 27597  98.7872 113.6317 0002177  96.1451 263.9978 14.29341638222559","category":"Other"},{"name":"SL-16 R/B","line1":"1 25861U 99039B   26155.06680166  .00000654  00000+0  89461-4 0  9990","line2":"2 25861  97.9843 213.9665 0014270 342.4851  17.5868 14.81832001449658","category":"Other"},{"name":"H-2A R/B","line1":"1 27601U 02056E   26154.48287659  .00000243  00000+0  10004-3 0  9992","line2":"2 27601  98.3306 111.6572 0068835 266.0531 202.3504 14.33815770226402","category":"Other"},{"name":"CZ-4B R/B","line1":"1 25732U 99025C   26155.08541132  .00000080  00000+0  59207-4 0  9991","line2":"2 25732  98.6489 197.2530 0038260  96.2684 317.9376 14.18281192400418","category":"Other"},{"name":"HELIOS 1B","line1":"1 25977U 99064A   26154.66223657  .00001617  00000+0  18277-3 0  9995","line2":"2 25977  98.1625  59.4101 0002253 109.7874 250.3585 14.87968134698047","category":"Other"},{"name":"RESURS-DK 1","line1":"1 29228U 06021A   26155.01277219  .00002370  00000+0  13939-3 0  9999","line2":"2 29228  69.9332  13.6552 0006031 303.6136  56.4455 15.13154696100585","category":"Other"},{"name":"CZ-4B R/B","line1":"1 28059U 03049C   26154.61600001  .00000368  00000+0  96037-4 0  9997","line2":"2 28059  98.6894 152.9224 0047503 330.8112  29.0430 14.55090366199097","category":"Other"},{"name":"CZ-2D R/B","line1":"1 28738U 05024B   26155.01607343  .00056235  00000+0  50506-3 0  9991","line2":"2 28738  97.3490 173.8010 0005457  82.9591 277.2290 15.68086346153271","category":"Other"},{"name":"CZ-4B R/B","line1":"1 29507U 06046C   26155.06698382  .00005238  00000+0  26011-3 0  9990","line2":"2 29507  97.5455 199.7150 0031690 330.3898  29.5540 15.17682541 73145","category":"Other"},{"name":"SL-16 R/B","line1":"1 26070U 00006B   26154.64155698 -.00000014  00000+0  17310-4 0  9994","line2":"2 26070  71.0033 277.1057 0014836  45.0794 315.1530 14.15837347360720","category":"Other"},{"name":"CZ-2C R/B","line1":"1 28480U 04046B   26154.65897453  .00000124  00000+0  61753-4 0  9993","line2":"2 28480  98.1954  64.2840 0138083 260.5740  97.9811 14.27023466120767","category":"Other"},{"name":"SL-16 R/B","line1":"1 24298U 96051B   26154.64643126  .00000142  00000+0  10371-3 0  9997","line2":"2 24298  70.7634 353.3077 0014292 357.7855   2.3198 14.12441490533789","category":"Other"},{"name":"DELTA 2 R/B","line1":"1 25876U 99041E   26154.65647748  .00000694  00000+0  14945-3 0  9990","line2":"2 25876  51.7658 317.8456 0501108 242.0234 112.9132 14.11990288375173","category":"Other"}]}